[{"OBJECT_NAME":"LEMUR-1","OBJECT_ID":"2014-033AL","EPOCH":"2026-03-03T08:54:34.622784","MEAN_MOTION":14.84758102,"ECCENTRICITY":0.0049822,"INCLINATION":97.77,"RA_OF_ASC_NODE":214.6528,"ARG_OF_PERICENTER":66.1847,"MEAN_ANOMALY":294.458,"EPHEMERIS_TYPE":0,"CLASSIFICATION_TYPE":"U","NORAD_CAT_ID":40044,"ELEMENT_SET_NO":999,"REV_AT_EPOCH":62976,"BSTAR":0.00040662366,"MEAN_MOTION_DOT":3.471e-5,"MEAN_MOTION_DDOT":0},{"OBJECT_NAME":"LEMUR-2-GREENBERG","OBJECT_ID":"2017-042N","EPOCH":"2026-03-03T12:02:54.215232","MEAN_MOTION":15.27683252,"ECCENTRICITY":0.00095208,"INCLINATION":97.3762,"RA_OF_ASC_NODE":243.9025,"ARG_OF_PERICENTER":24.9743,"MEAN_ANOMALY":335.1955,"EPHEMERIS_TYPE":0,"CLASSIFICATION_TYPE":"U","NORAD_CAT_ID":42837,"ELEMENT_SET_NO":999,"REV_AT_EPOCH":47223,"BSTAR":0.00078816216,"MEAN_MOTION_DOT":0.00021315,"MEAN_MOTION_DDOT":0},{"OBJECT_NAME":"LEMUR-2-ANDIS","OBJECT_ID":"2017-042P","EPOCH":"2026-03-03T17:45:48.737088","MEAN_MOTION":15.30214504,"ECCENTRICITY":0.0009418,"INCLINATION":97.3648,"RA_OF_ASC_NODE":244.0226,"ARG_OF_PERICENTER":24.3788,"MEAN_ANOMALY":335.7896,"EPHEMERIS_TYPE":0,"CLASSIFICATION_TYPE":"U","NORAD_CAT_ID":42838,"ELEMENT_SET_NO":999,"REV_AT_EPOCH":47230,"BSTAR":0.0010399,"MEAN_MOTION_DOT":0.00030452,"MEAN_MOTION_DDOT":0},{"OBJECT_NAME":"LEMUR-2-MONSON","OBJECT_ID":"2017-042Q","EPOCH":"2026-03-03T13:20:38.573664","MEAN_MOTION":15.24736791,"ECCENTRICITY":0.000694,"INCLINATION":97.4019,"RA_OF_ASC_NODE":244.0648,"ARG_OF_PERICENTER":14.2534,"MEAN_ANOMALY":345.8898,"EPHEMERIS_TYPE":0,"CLASSIFICATION_TYPE":"U","NORAD_CAT_ID":42839,"ELEMENT_SET_NO":999,"REV_AT_EPOCH":47205,"BSTAR":0.000829,"MEAN_MOTION_DOT":0.00020504,"MEAN_MOTION_DDOT":0},{"OBJECT_NAME":"LEMUR-2-FURIAUS","OBJECT_ID":"2017-042R","EPOCH":"2026-03-03T17:34:33.915936","MEAN_MOTION":15.25882702,"ECCENTRICITY":0.0007579,"INCLINATION":97.3735,"RA_OF_ASC_NODE":242.3531,"ARG_OF_PERICENTER":78.1327,"MEAN_ANOMALY":282.0761,"EPHEMERIS_TYPE":0,"CLASSIFICATION_TYPE":"U","NORAD_CAT_ID":42840,"ELEMENT_SET_NO":999,"REV_AT_EPOCH":47210,"BSTAR":0.0012285,"MEAN_MOTION_DOT":0.0003153,"MEAN_MOTION_DDOT":0},{"OBJECT_NAME":"LEMUR-2-PETERG","OBJECT_ID":"2017-042S","EPOCH":"2026-03-03T11:07:04.816416","MEAN_MOTION":15.29292108,"ECCENTRICITY":0.00039905,"INCLINATION":97.3963,"RA_OF_ASC_NODE":247.6714,"ARG_OF_PERICENTER":3.0308,"MEAN_ANOMALY":357.0956,"EPHEMERIS_TYPE":0,"CLASSIFICATION_TYPE":"U","NORAD_CAT_ID":42841,"ELEMENT_SET_NO":999,"REV_AT_EPOCH":47225,"BSTAR":0.00085889651,"MEAN_MOTION_DOT":0.00024388,"MEAN_MOTION_DDOT":0},{"OBJECT_NAME":"LEMUR-2-DEMBITZ","OBJECT_ID":"2017-042T","EPOCH":"2026-03-03T10:41:20.013792","MEAN_MOTION":15.26651527,"ECCENTRICITY":0.00072672,"INCLINATION":97.3793,"RA_OF_ASC_NODE":244.9641,"ARG_OF_PERICENTER":37.6449,"MEAN_ANOMALY":322.5297,"EPHEMERIS_TYPE":0,"CLASSIFICATION_TYPE":"U","NORAD_CAT_ID":42842,"ELEMENT_SET_NO":999,"REV_AT_EPOCH":47219,"BSTAR":0.00086975355,"MEAN_MOTION_DOT":0.00022797,"MEAN_MOTION_DDOT":0},{"OBJECT_NAME":"LEMUR-2-ZACHARY","OBJECT_ID":"2017-042W","EPOCH":"2026-03-03T11:40:24.413088","MEAN_MOTION":15.41385644,"ECCENTRICITY":0.0003723,"INCLINATION":97.3649,"RA_OF_ASC_NODE":252.5231,"ARG_OF_PERICENTER":40.01,"MEAN_ANOMALY":320.142,"EPHEMERIS_TYPE":0,"CLASSIFICATION_TYPE":"U","NORAD_CAT_ID":42845,"ELEMENT_SET_NO":999,"REV_AT_EPOCH":47287,"BSTAR":0.0011943031,"MEAN_MOTION_DOT":0.00050061,"MEAN_MOTION_DDOT":0},{"OBJECT_NAME":"LEMUR-2-JIN-LUEN","OBJECT_ID":"2018-014C","EPOCH":"2026-03-03T18:20:33.271008","MEAN_MOTION":15.76091353,"ECCENTRICITY":0.0001796,"INCLINATION":97.5453,"RA_OF_ASC_NODE":352.5018,"ARG_OF_PERICENTER":110.916,"MEAN_ANOMALY":249.2297,"EPHEMERIS_TYPE":0,"CLASSIFICATION_TYPE":"U","NORAD_CAT_ID":43182,"ELEMENT_SET_NO":999,"REV_AT_EPOCH":44453,"BSTAR":0.001542,"MEAN_MOTION_DOT":0.00246083,"MEAN_MOTION_DDOT":0},{"OBJECT_NAME":"LEMUR-2-KADI","OBJECT_ID":"2018-014E","EPOCH":"2026-03-03T17:12:01.901088","MEAN_MOTION":15.62800814,"ECCENTRICITY":0.0001001,"INCLINATION":97.4721,"RA_OF_ASC_NODE":347.0454,"ARG_OF_PERICENTER":52.0039,"MEAN_ANOMALY":308.1309,"EPHEMERIS_TYPE":0,"CLASSIFICATION_TYPE":"U","NORAD_CAT_ID":43184,"ELEMENT_SET_NO":999,"REV_AT_EPOCH":44445,"BSTAR":0.0012276,"MEAN_MOTION_DOT":0.00111622,"MEAN_MOTION_DDOT":0},{"OBJECT_NAME":"LEMUR-2-AMANDA-SVANTE","OBJECT_ID":"2021-034B","EPOCH":"2026-03-03T18:03:40.759776","MEAN_MOTION":15.28030595,"ECCENTRICITY":0.0002121,"INCLINATION":97.5846,"RA_OF_ASC_NODE":138.7302,"ARG_OF_PERICENTER":224.4543,"MEAN_ANOMALY":135.6526,"EPHEMERIS_TYPE":0,"CLASSIFICATION_TYPE":"U","NORAD_CAT_ID":48269,"ELEMENT_SET_NO":999,"REV_AT_EPOCH":26492,"BSTAR":0.0013404,"MEAN_MOTION_DOT":0.00036715,"MEAN_MOTION_DDOT":0},{"OBJECT_NAME":"LEMUR-2-SPECIAL-K","OBJECT_ID":"2021-034F","EPOCH":"2026-03-03T18:10:29.536320","MEAN_MOTION":15.44342263,"ECCENTRICITY":0.000144,"INCLINATION":97.5729,"RA_OF_ASC_NODE":143.8173,"ARG_OF_PERICENTER":223.4437,"MEAN_ANOMALY":136.6697,"EPHEMERIS_TYPE":0,"CLASSIFICATION_TYPE":"U","NORAD_CAT_ID":48273,"ELEMENT_SET_NO":999,"REV_AT_EPOCH":26532,"BSTAR":0.0018592,"MEAN_MOTION_DOT":0.00086475,"MEAN_MOTION_DDOT":0},{"OBJECT_NAME":"LEMUR-2-EMBRIONOVIS","OBJECT_ID":"2023-084AQ","EPOCH":"2026-03-03T14:33:56.361312","MEAN_MOTION":15.34513644,"ECCENTRICITY":0.0008614,"INCLINATION":97.6118,"RA_OF_ASC_NODE":203.0936,"ARG_OF_PERICENTER":336.3771,"MEAN_ANOMALY":23.7075,"EPHEMERIS_TYPE":0,"CLASSIFICATION_TYPE":"U","NORAD_CAT_ID":56970,"ELEMENT_SET_NO":999,"REV_AT_EPOCH":15147,"BSTAR":0.00031628,"MEAN_MOTION_DOT":0.00010505,"MEAN_MOTION_DDOT":0},{"OBJECT_NAME":"LEMUR-2-MANO","OBJECT_ID":"2023-100E","EPOCH":"2026-03-03T14:33:26.925696","MEAN_MOTION":15.58879848,"ECCENTRICITY":0.0002403,"INCLINATION":99.4553,"RA_OF_ASC_NODE":83.1322,"ARG_OF_PERICENTER":57.046,"MEAN_ANOMALY":303.102,"EPHEMERIS_TYPE":0,"CLASSIFICATION_TYPE":"U","NORAD_CAT_ID":57390,"ELEMENT_SET_NO":999,"REV_AT_EPOCH":14553,"BSTAR":0.0019742,"MEAN_MOTION_DOT":0.00155538,"MEAN_MOTION_DDOT":0},{"OBJECT_NAME":"LEMUR-2-DEVERILL-M-T","OBJECT_ID":"2023-100F","EPOCH":"2026-03-03T12:30:15.087744","MEAN_MOTION":15.34317768,"ECCENTRICITY":0.00087,"INCLINATION":99.4572,"RA_OF_ASC_NODE":71.2312,"ARG_OF_PERICENTER":46.5642,"MEAN_ANOMALY":313.6316,"EPHEMERIS_TYPE":0,"CLASSIFICATION_TYPE":"U","NORAD_CAT_ID":57391,"ELEMENT_SET_NO":999,"REV_AT_EPOCH":14501,"BSTAR":0.0010212,"MEAN_MOTION_DOT":0.00033983,"MEAN_MOTION_DDOT":0},{"OBJECT_NAME":"LEMUR-2-BASS","OBJECT_ID":"2023-174D","EPOCH":"2026-03-03T18:44:04.997760","MEAN_MOTION":15.39499792,"ECCENTRICITY":0.0007996,"INCLINATION":97.3896,"RA_OF_ASC_NODE":146.2896,"ARG_OF_PERICENTER":182.2361,"MEAN_ANOMALY":177.885,"EPHEMERIS_TYPE":0,"CLASSIFICATION_TYPE":"U","NORAD_CAT_ID":58259,"ELEMENT_SET_NO":999,"REV_AT_EPOCH":12912,"BSTAR":0.00059824,"MEAN_MOTION_DOT":0.00023463,"MEAN_MOTION_DDOT":0}]
