LEMUR-1                 
1 40044U 14033AL  26062.37123406  .00003471  00000+0  40662-3 0  9990
2 40044  97.7700 214.6528 0049822  66.1847 294.4580 14.84758102629761
LEMUR-2-GREENBERG       
1 42837U 17042N   26062.50201638  .00021315  00000+0  78816-3 0  9993
2 42837  97.3762 243.9025 0009520  24.9743 335.1955 15.27683252472230
LEMUR-2-ANDIS           
1 42838U 17042P   26062.74014742  .00030452  00000+0  10399-2 0  9991
2 42838  97.3648 244.0226 0009418  24.3788 335.7896 15.30214504472300
LEMUR-2-MONSON          
1 42839U 17042Q   26062.55600201  .00020504  00000+0  82900-3 0  9997
2 42839  97.4019 244.0648 0006940  14.2534 345.8898 15.24736791472052
LEMUR-2-FURIAUS         
1 42840U 17042R   26062.73233699  .00031530  00000+0  12285-2 0  9991
2 42840  97.3735 242.3531 0007579  78.1327 282.0761 15.25882702472100
LEMUR-2-PETERG          
1 42841U 17042S   26062.46325019  .00024388  00000+0  85890-3 0  9996
2 42841  97.3963 247.6714 0003990   3.0308 357.0956 15.29292108472258
LEMUR-2-DEMBITZ         
1 42842U 17042T   26062.44537053  .00022797  00000+0  86975-3 0  9995
2 42842  97.3793 244.9641 0007267  37.6449 322.5297 15.26651527472198
LEMUR-2-ZACHARY         
1 42845U 17042W   26062.48639367  .00050061  00000+0  11943-2 0  9990
2 42845  97.3649 252.5231 0003723  40.0100 320.1420 15.41385644472874
LEMUR-2-JIN-LUEN        
1 43182U 18014C   26062.76427397  .00246083  00000+0  15420-2 0  9999
2 43182  97.5453 352.5018 0001796 110.9160 249.2297 15.76091353444533
LEMUR-2-KADI            
1 43184U 18014E   26062.71668867  .00111622  00000+0  12276-2 0  9991
2 43184  97.4721 347.0454 0001001  52.0039 308.1309 15.62800814444450
LEMUR-2-AMANDA-SVANTE   
1 48269U 21034B   26062.75255509  .00036715  00000+0  13404-2 0  9998
2 48269  97.5846 138.7302 0002121 224.4543 135.6526 15.28030595264923
LEMUR-2-SPECIAL-K       
1 48273U 21034F   26062.75728630  .00086475  00000+0  18592-2 0  9994
2 48273  97.5729 143.8173 0001440 223.4437 136.6697 15.44342263265326
LEMUR-2-EMBRIONOVIS     
1 56970U 23084AQ  26062.60690233  .00010505  00000+0  31628-3 0  9992
2 56970  97.6118 203.0936 0008614 336.3771  23.7075 15.34513644151471
LEMUR-2-MANO            
1 57390U 23100E   26062.60656164  .00155538  00000+0  19742-2 0  9991
2 57390  99.4553  83.1322 0002403  57.0460 303.1020 15.58879848145531
LEMUR-2-DEVERILL-M-T    
1 57391U 23100F   26062.52100796  .00033983  00000+0  10212-2 0  9990
2 57391  99.4572  71.2312 0008700  46.5642 313.6316 15.34317768145010
LEMUR-2-BASS            
1 58259U 23174D   26062.78061340  .00023463  00000+0  59824-3 0  9999
2 58259  97.3896 146.2896 0007996 182.2361 177.8850 15.39499792129122
